{
  "type": "FeatureCollection",
  "features": [
    {
      "type": "Feature",
      "properties": {
        "norad_id": 67010,
        "name": "STARLINK-36189",
        "group": "last-30-days",
        "lat": 26.22152418059514,
        "lon": 111.66724890686335,
        "alt_km": 295.14481454691304,
        "timestamp": "2025-12-20T05:41:48.745239+00:00",
        "meta_object_name": "STARLINK-36189",
        "meta_object_id": "2025-293H",
        "meta_epoch": "2025-12-19T22:00:01.999584",
        "meta_mean_motion": 15.9313317,
        "meta_eccentricity": 0.00039118,
        "meta_inclination": 69.9948,
        "meta_ra_of_asc_node": 302.9371,
        "meta_arg_of_pericenter": 266.481,
        "meta_mean_anomaly": 207.2154,
        "meta_ephemeris_type": 0,
        "meta_classification_type": "U",
        "meta_norad_cat_id": 67010,
        "meta_element_set_no": 999,
        "meta_rev_at_epoch": 133,
        "meta_bstar": -0.0033319592,
        "meta_mean_motion_dot": -0.01171558,
        "meta_mean_motion_ddot": 0.00040950299,
        "tle_line1": "1 67010U 25293H   25353.91668981 -.01171558  40950-3 -33320-2 0  9995",
        "tle_line2": "2 67010  69.9948 302.9371 0003911 266.4810 207.2154 15.93133170  1338"
      },
      "geometry": {
        "type": "Point",
        "coordinates": [
          111.66724890686335,
          26.22152418059514
        ]
      }
    },
    {
      "type": "Feature",
      "properties": {
        "norad_id": 67011,
        "name": "STARLINK-36167",
        "group": "last-30-days",
        "lat": 28.62212690364554,
        "lon": 110.53878004737824,
        "alt_km": 295.01515678503074,
        "timestamp": "2025-12-20T05:41:48.745253+00:00",
        "meta_object_name": "STARLINK-36167",
        "meta_object_id": "2025-293J",
        "meta_epoch": "2025-12-19T22:00:01.999584",
        "meta_mean_motion": 15.93073045,
        "meta_eccentricity": 0.00038863,
        "meta_inclination": 69.9943,
        "meta_ra_of_asc_node": 302.9397,
        "meta_arg_of_pericenter": 266.5494,
        "meta_mean_anomaly": 204.6149,
        "meta_ephemeris_type": 0,
        "meta_classification_type": "U",
        "meta_norad_cat_id": 67011,
        "meta_element_set_no": 999,
        "meta_rev_at_epoch": 130,
        "meta_bstar": -0.003332836,
        "meta_mean_motion_dot": -0.01168212,
        "meta_mean_motion_ddot": 0.00040710038,
        "tle_line1": "1 67011U 25293J   25353.91668981 -.01168212  40710-3 -33328-2 0  9991",
        "tle_line2": "2 67011  69.9943 302.9397 0003886 266.5494 204.6149 15.93073045  1308"
      },
      "geometry": {
        "type": "Point",
        "coordinates": [
          110.53878004737824,
          28.62212690364554
        ]
      }
    },
    {
      "type": "Feature",
      "properties": {
        "norad_id": 67012,
        "name": "STARLINK-36175",
        "group": "last-30-days",
        "lat": 24.276412642365923,
        "lon": 112.54392111510083,
        "alt_km": 295.2783398108595,
        "timestamp": "2025-12-20T05:41:48.745263+00:00",
        "meta_object_name": "STARLINK-36175",
        "meta_object_id": "2025-293K",
        "meta_epoch": "2025-12-19T22:00:01.999584",
        "meta_mean_motion": 15.93181444,
        "meta_eccentricity": 0.00038802,
        "meta_inclination": 69.9946,
        "meta_ra_of_asc_node": 302.9344,
        "meta_arg_of_pericenter": 267.4283,
        "meta_mean_anomaly": 208.3127,
        "meta_ephemeris_type": 0,
        "meta_classification_type": "U",
        "meta_norad_cat_id": 67012,
        "meta_element_set_no": 999,
        "meta_rev_at_epoch": 130,
        "meta_bstar": -0.0033326841,
        "meta_mean_motion_dot": -0.0117473,
        "meta_mean_motion_ddot": 0.00041175203,
        "tle_line1": "1 67012U 25293K   25353.91668981 -.01174730  41175-3 -33327-2 0  9999",
        "tle_line2": "2 67012  69.9946 302.9344 0003880 267.4283 208.3127 15.93181444  1304"
      },
      "geometry": {
        "type": "Point",
        "coordinates": [
          112.54392111510083,
          24.276412642365923
        ]
      }
    },
    {
      "type": "Feature",
      "properties": {
        "norad_id": 67013,
        "name": "STARLINK-35856",
        "group": "last-30-days",
        "lat": 21.892287466472194,
        "lon": 113.57975123368998,
        "alt_km": 295.3739243935279,
        "timestamp": "2025-12-20T05:41:48.745282+00:00",
        "meta_object_name": "STARLINK-35856",
        "meta_object_id": "2025-293L",
        "meta_epoch": "2025-12-19T22:00:01.999584",
        "meta_mean_motion": 15.93240233,
        "meta_eccentricity": 0.00038649,
        "meta_inclination": 69.9942,
        "meta_ra_of_asc_node": 302.9312,
        "meta_arg_of_pericenter": 266.8817,
        "meta_mean_anomaly": 211.3595,
        "meta_ephemeris_type": 0,
        "meta_classification_type": "U",
        "meta_norad_cat_id": 67013,
        "meta_element_set_no": 999,
        "meta_rev_at_epoch": 130,
        "meta_bstar": -0.0033335872,
        "meta_mean_motion_dot": -0.01178624,
        "meta_mean_motion_ddot": 0.00041452049,
        "tle_line1": "1 67013U 25293L   25353.91668981 -.01178624  41452-3 -33336-2 0  9994",
        "tle_line2": "2 67013  69.9942 302.9312 0003864 266.8817 211.3595 15.93240233  1309"
      },
      "geometry": {
        "type": "Point",
        "coordinates": [
          113.57975123368998,
          21.892287466472194
        ]
      }
    },
    {
      "type": "Feature",
      "properties": {
        "norad_id": 67014,
        "name": "STARLINK-36207",
        "group": "last-30-days",
        "lat": 19.66112340420723,
        "lon": 114.51655721751501,
        "alt_km": 295.60888081759913,
        "timestamp": "2025-12-20T05:41:48.745307+00:00",
        "meta_object_name": "STARLINK-36207",
        "meta_object_id": "2025-293M",
        "meta_epoch": "2025-12-19T22:00:01.999584",
        "meta_mean_motion": 15.9329669,
        "meta_eccentricity": 0.00038574,
        "meta_inclination": 69.9947,
        "meta_ra_of_asc_node": 302.9287,
        "meta_arg_of_pericenter": 270.0077,
        "meta_mean_anomaly": 210.5636,
        "meta_ephemeris_type": 0,
        "meta_classification_type": "U",
        "meta_norad_cat_id": 67014,
        "meta_element_set_no": 999,
        "meta_rev_at_epoch": 133,
        "meta_bstar": -0.0033239453,
        "meta_mean_motion_dot": -0.01178687,
        "meta_mean_motion_ddot": 0.00041479807,
        "tle_line1": "1 67014U 25293M   25353.91668981 -.01178687  41480-3 -33239-2 0  9997",
        "tle_line2": "2 67014  69.9947 302.9287 0003857 270.0077 210.5636 15.93296690  1331"
      },
      "geometry": {
        "type": "Point",
        "coordinates": [
          114.51655721751501,
          19.66112340420723
        ]
      }
    },
    {
      "type": "Feature",
      "properties": {
        "norad_id": 67015,
        "name": "STARLINK-36093",
        "group": "last-30-days",
        "lat": 15.240540704984516,
        "lon": 116.29326361433135,
        "alt_km": 295.6371184110849,
        "timestamp": "2025-12-20T05:41:48.745320+00:00",
        "meta_object_name": "STARLINK-36093",
        "meta_object_id": "2025-293N",
        "meta_epoch": "2025-12-19T22:00:01.999584",
        "meta_mean_motion": 15.93409662,
        "meta_eccentricity": 0.00038489,
        "meta_inclination": 69.9944,
        "meta_ra_of_asc_node": 302.9229,
        "meta_arg_of_pericenter": 266.0644,
        "meta_mean_anomaly": 219.1149,
        "meta_ephemeris_type": 0,
        "meta_classification_type": "U",
        "meta_norad_cat_id": 67015,
        "meta_element_set_no": 999,
        "meta_rev_at_epoch": 130,
        "meta_bstar": -0.0033385831,
        "meta_mean_motion_dot": -0.01190787,
        "meta_mean_motion_ddot": 0.00042317309,
        "tle_line1": "1 67015U 25293N   25353.91668981 -.01190787  42317-3 -33386-2 0  9996",
        "tle_line2": "2 67015  69.9944 302.9229 0003848 266.0644 219.1149 15.93409662  1306"
      },
      "geometry": {
        "type": "Point",
        "coordinates": [
          116.29326361433135,
          15.240540704984516
        ]
      }
    },
    {
      "type": "Feature",
      "properties": {
        "norad_id": 67016,
        "name": "STARLINK-36120",
        "group": "last-30-days",
        "lat": 17.59242259255339,
        "lon": 115.35959465373143,
        "alt_km": 295.52119661695724,
        "timestamp": "2025-12-20T05:41:48.745334+00:00",
        "meta_object_name": "STARLINK-36120",
        "meta_object_id": "2025-293P",
        "meta_epoch": "2025-12-19T22:00:01.999584",
        "meta_mean_motion": 15.9334903,
        "meta_eccentricity": 0.00038541,
        "meta_inclination": 69.9945,
        "meta_ra_of_asc_node": 302.926,
        "meta_arg_of_pericenter": 265.7065,
        "meta_mean_anomaly": 217.0249,
        "meta_ephemeris_type": 0,
        "meta_classification_type": "U",
        "meta_norad_cat_id": 67016,
        "meta_element_set_no": 999,
        "meta_rev_at_epoch": 130,
        "meta_bstar": -0.0033341707,
        "meta_mean_motion_dot": -0.01185493,
        "meta_mean_motion_ddot": 0.00041945064,
        "tle_line1": "1 67016U 25293P   25353.91668981 -.01185493  41945-3 -33342-2 0  9993",
        "tle_line2": "2 67016  69.9945 302.9260 0003854 265.7065 217.0249 15.93349030  1303"
      },
      "geometry": {
        "type": "Point",
        "coordinates": [
          115.35959465373143,
          17.59242259255339
        ]
      }
    }
  ]
}